NORAD_CAT_ID,OBJECT_NAME,OBJECT_TYPE,EPOCH,MEAN_MOTION,ECCENTRICITY,INCLINATION,RA_OF_ASC_NODE,ARG_OF_PERICENTER,MEAN_ANOMALY,BSTAR,MEAN_MOTION_DOT,MEAN_MOTION_DDOT,TLE_LINE0,TLE_LINE1,TLE_LINE2,SEMIMAJOR_AXIS,PERIOD,APOGEE,PERIGEE,DECAYED
51117.0,STARLINK-3391,PAYLOAD,2022-12-16 12:38:01,15.08834875,0.0003081,53.2162,182.6004,44.8164,315.3077,3.5271e-05,2.73e-06,0.0,0 STARLINK-3391,1 51117U 22005P   22350.52641156  .00000273  00000-0  35271-4 0  9990,2 51117  53.2162 182.6004 0003081  44.8164 315.3077 15.08834875 50860,6917.896,95.438,541.8919999999998,537.63,0.0
51117.0,STARLINK-3391,PAYLOAD,2022-12-16 18:59:34,15.08835277,0.0003098,53.2161,181.4108,45.802,314.3226,6.1034e-05,6.83e-06,0.0,0 STARLINK-3391,1 51117U 22005P   22350.79137250  .00000683  00000-0  61034-4 0  9995,2 51117  53.2161 181.4108 0003098  45.8020 314.3226 15.08835277 52012,6917.895,95.438,541.903,537.617,0.0
51117.0,STARLINK-3391,PAYLOAD,2022-12-16 20:34:57,15.088514600000002,0.0003082,53.2163,181.1134,59.5605,300.5691,-0.00037978,-6.330000000000001e-05,0.0,0 STARLINK-3391,1 51117U 22005P   22350.85760444 -.00006330  00000-0 -37978-3 0  9995,2 51117  53.2163 181.1134 0003082  59.5605 300.5691 15.08851460 50916,6917.845,95.437,541.842,537.578,0.0
51117.0,STARLINK-3391,PAYLOAD,2022-12-17 12:28:49,15.08835696,0.0003133,53.2161,178.1399,46.2535,313.8716,0.00015434,2.168e-05,0.0,0 STARLINK-3391,1 51117U 22005P   22351.52001664  .00002168  00000-0  15434-3 0  9998,2 51117  53.2161 178.1399 0003133  46.2535 313.8716 15.08835696 51015,6917.894,95.438,541.9259999999998,537.591,0.0
51117.0,STARLINK-3391,PAYLOAD,2022-12-17 18:50:21,15.08838386,0.0003145,53.216,176.9504,46.9034,313.2221,0.00016628,2.359e-05,0.0,0 STARLINK-3391,1 51117U 22005P   22351.78497616  .00002359  00000-0  16628-3 0  9990,2 51117  53.2160 176.9504 0003145  46.9034 313.2221 15.08838386 51050,6917.885,95.438,541.9259999999998,537.575,0.0
51117.0,STARLINK-3391,PAYLOAD,2022-12-17 20:25:45,15.08839968,0.0003153,53.216,176.6529,47.1591,312.9665,0.00016515,2.341e-05,0.0,0 STARLINK-3391,1 51117U 22005P   22351.85121553  .00002341  00000-0  16515-3 0  9998,2 51117  53.2160 176.6529 0003153  47.1591 312.9665 15.08839968 52173,6917.88,95.438,541.927,537.564,0.0
51117.0,STARLINK-3391,PAYLOAD,2022-12-18 07:33:27,15.08840016,0.0003206,53.2157,174.5717,48.0441,312.0824,0.0001505,2.107e-05,0.0,0 STARLINK-3391,1 51117U 22005P   22352.31489686  .00002107  00000-0  15050-3 0  9997,2 51117  53.2157 174.5717 0003206  48.0441 312.0824 15.08840016 51137,6917.88,95.438,541.9630000000002,537.5269999999998,0.0
51117.0,STARLINK-3391,PAYLOAD,2022-12-18 21:51:55,15.08842837,0.0003214,53.2155,171.895,49.7038,310.4234,0.00016666,2.365e-05,0.0,0 STARLINK-3391,1 51117U 22005P   22352.91105598  .00002365  00000-0  16666-3 0  9990,2 51117  53.2155 171.8950 0003214  49.7038 310.4234 15.08842837 51223,6917.871999999999,95.437,541.96,537.513,0.0
51117.0,STARLINK-3391,PAYLOAD,2022-12-19 18:31:55,15.0884439,0.0003241,53.2154,168.0292,51.7893,308.339,0.000143,1.988e-05,0.0,0 STARLINK-3391,1 51117U 22005P   22353.77217468  .00001988  00000-0  14300-3 0  9998,2 51117  53.2154 168.0292 0003241  51.7893 308.3390 15.08844390 51350,6917.8669999999975,95.437,541.974,537.49,0.0
51117.0,STARLINK-3391,PAYLOAD,2022-12-20 12:01:10,15.08834934,0.0003187,53.2163,164.7575,53.3062,306.8222,5.775e-05,6.3e-06,0.0,0 STARLINK-3391,1 51117U 22005P   22354.50081982  .00000630  00000-0  57750-4 0  9990,2 51117  53.2163 164.7575 0003187  53.3062 306.8222 15.08834934 52577,6917.896,95.438,541.966,537.556,0.0
51117.0,STARLINK-3391,PAYLOAD,2022-12-21 03:55:03,15.08808933,0.0003023,53.2164,161.7841,55.7178,304.41,0.00039502,5.999e-05,0.0,0 STARLINK-3391,1 51117U 22005P   22355.16322935  .00005999  00000-0  39502-3 0  9996,2 51117  53.2164 161.7841 0003023  55.7178 304.4100 15.08808933 52674,6917.975,95.44,541.932,537.749,0.0
51117.0,STARLINK-3391,PAYLOAD,2022-12-21 11:51:57,15.0883682,0.0003145,53.2165,160.2974,55.6391,304.4898,-9.7266e-06,-4.44e-06,0.0,0 STARLINK-3391,1 51117U 22005P   22355.49442068 -.00000444  00000-0 -97266-5 0  9997,2 51117  53.2165 160.2974 0003145  55.6391 304.4898 15.08836820 52723,6917.89,95.438,541.931,537.5790000000002,0.0
51117.0,STARLINK-3391,PAYLOAD,2022-12-22 03:45:49,15.08837341,0.000316,53.2168,157.32399999999996,56.416,303.7134,2.8277e-05,1.61e-06,0.0,0 STARLINK-3391,1 51117U 22005P   22356.15682024  .00000161  00000-0  28277-4 0  9998,2 51117  53.2168 157.3240 0003160  56.4160 303.7134 15.08837341 51711,6917.889,95.438,541.94,537.567,0.0
51117.0,STARLINK-3391,PAYLOAD,2022-12-22 21:15:03,15.08840108,0.0003186,53.2168,154.0532,57.8811,302.249,9.251e-05,1.184e-05,0.0,0 STARLINK-3391,1 51117U 22005P   22356.88545850  .00001184  00000-0  92510-4 0  9990,2 51117  53.2168 154.0532 0003186  57.8811 302.2490 15.08840108 52934,6917.88,95.438,541.9490000000002,537.5409999999998,0.0
51117.0,STARLINK-3391,PAYLOAD,2022-12-23 13:08:54,15.08845509,0.0003158,53.2169,151.0791,60.0139,300.1166,0.00015515,2.182e-05,0.0,0 STARLINK-3391,1 51117U 22005P   22357.54785196  .00002182  00000-0  15515-3 0  9991,2 51117  53.2169 151.0791 0003158  60.0139 300.1166 15.08845509 51922,6917.864000000001,95.437,541.913,537.544,0.0
51117.0,STARLINK-3391,PAYLOAD,2022-12-23 19:30:27,15.08843976,0.000317,53.2171,149.8898,59.4346,300.6959,0.00010661,1.409e-05,0.0,0 STARLINK-3391,1 51117U 22005P   22357.81281404  .00001409  00000-0  10661-3 0  9992,2 51117  53.2171 149.8898 0003170  59.4346 300.6959 15.08843976 51969,6917.868,95.437,541.9259999999998,537.54,0.0
51117.0,STARLINK-3391,PAYLOAD,2022-12-24 05:02:46,15.08842573,0.0003093,53.2171,148.1057,59.9672,300.1627,7.047399999999999e-05,8.33e-06,0.0,0 STARLINK-3391,1 51117U 22005P   22358.21025482  .00000833  00000-0  70474-4 0  9998,2 51117  53.2171 148.1057 0003093  59.9672 300.1627 15.08842573 53139,6917.873000000001,95.437,541.877,537.5980000000002,0.0
51117.0,STARLINK-3391,PAYLOAD,2022-12-24 09:48:55,15.08844011,0.000313,53.2169,147.2135,60.7499,299.3806,7.7236e-05,9.41e-06,0.0,0 STARLINK-3391,1 51117U 22005P   22358.40897342  .00000941  00000-0  77236-4 0  9994,2 51117  53.2169 147.2135 0003130  60.7499 299.3806 15.08844011 52059,6917.868,95.437,541.898,537.568,0.0
51117.0,STARLINK-3391,PAYLOAD,2022-12-24 17:45:50,15.08851493,0.0003093,53.2169,145.7267,61.0915,299.0387,9.4874e-05,1.222e-05,0.0,0 STARLINK-3391,1 51117U 22005P   22358.74016663  .00001222  00000-0  94874-4 0  9990,2 51117  53.2169 145.7267 0003093  61.0915 299.0387 15.08851493 53215,6917.845,95.437,541.85,537.571,0.0
51117.0,STARLINK-3391,PAYLOAD,2022-12-25 11:15:04,15.08848936,0.0003118,53.2169,142.4557,62.4397,297.6911,4.4627e-06,-2.18e-06,0.0,0 STARLINK-3391,1 51117U 22005P   22359.46880665 -.00000218  00000-0  44627-5 0  9998,2 51117  53.2169 142.4557 0003118  62.4397 297.6911 15.08848936 53325,6917.853,95.437,541.875,537.561,0.0
51117.0,STARLINK-3391,PAYLOAD,2022-12-25 19:12:01,15.08834181,0.0003165,53.2166,140.9687,63.4064,296.7252,-9.4752e-05,-1.796e-05,0.0,0 STARLINK-3391,1 51117U 22005P   22359.80001816 -.00001796  00000-0 -94752-4 0  9995,2 51117  53.2166 140.9687 0003165  63.4064 296.7252 15.08834181 53373,6917.898,95.438,541.953,537.5740000000002,0.0
51117.0,STARLINK-3391,PAYLOAD,2022-12-26 03:08:56,15.08836888,0.0003212,53.2171,139.4834,57.7714,302.3589,-2.7111e-06,-3.32e-06,0.0,0 STARLINK-3391,1 51117U 22005P   22360.13121394 -.00000332  00000-0 -27111-5 0  9998,2 51117  53.2171 139.4834 0003212  57.7714 302.3589 15.08836888 53426,6917.89,95.438,541.977,537.533,0.0
51117.0,STARLINK-3391,PAYLOAD,2022-12-26 15:52:01,15.08844533,0.000301,53.2168,137.1024,62.4949,297.6349,4.0847e-05,3.62e-06,0.0,0 STARLINK-3391,1 51117U 22005P   22360.66112719  .00000362  00000-0  40847-4 0  9998,2 51117  53.2168 137.1024 0003010  62.4949 297.6349 15.08844533 53502,6917.8669999999975,95.437,541.814,537.649,0.0
51117.0,STARLINK-3391,PAYLOAD,2022-12-26 17:27:24,15.08829973,0.0002977,53.2167,136.8052,56.6506,303.4771,0.00026612,3.948e-05,0.0,0 STARLINK-3391,1 51117U 22005P   22360.72737035  .00003948  00000-0  26612-3 0  9995,2 51117  53.2167 136.8052 0002977  56.6506 303.4771 15.08829973 52407,6917.911,95.438,541.835,537.717,0.0
51117.0,STARLINK-3391,PAYLOAD,2022-12-27 09:21:14,15.08847809,0.0002964,53.2176,133.8325,61.319,298.81,0.00016434,2.329e-05,0.0,0 STARLINK-3391,1 51117U 22005P   22361.38975683  .00002329  00000-0  16434-3 0  9994,2 51117  53.2176 133.8325 0002964  61.3190 298.8100 15.08847809 53610,6917.857,95.437,541.7719999999998,537.6709999999998,0.0
51117.0,STARLINK-3391,PAYLOAD,2022-12-27 17:18:10,15.08842679,0.000297,53.2169,132.346,60.9472,299.1817,0.00017534,2.503e-05,0.0,0 STARLINK-3391,1 51117U 22005P   22361.72095926  .00002503  00000-0  17534-3 0  9991,2 51117  53.2169 132.3460 0002970  60.9472 299.1817 15.08842679 52552,6917.871999999999,95.437,541.7919999999998,537.683,0.0
51117.0,STARLINK-3391,PAYLOAD,2022-12-28 17:08:59,15.08833523,0.0002973,53.2172,127.8848,61.1147,299.0143,-8.1628e-05,-1.587e-05,0.0,0 STARLINK-3391,1 51117U 22005P   22362.71457452 -.00001587  00000-0 -81628-4 0  9996,2 51117  53.2172 127.8848 0002973  61.1147 299.0143 15.08833523 53819,6917.9,95.438,541.822,537.7080000000002,0.0
51117.0,STARLINK-3391,PAYLOAD,2022-12-29 09:02:50,15.088352100000002,0.0002935,53.2168,124.9108,60.5203,299.6082,-6.505e-05,-1.324e-05,0.0,0 STARLINK-3391,1 51117U 22005P   22363.37697479 -.00001324  00000-0 -65050-4 0  9994,2 51117  53.2168 124.9108 0002935  60.5203 299.6082 15.08835210 52806,6917.895,95.438,541.79,537.73,0.0
51117.0,STARLINK-3391,PAYLOAD,2022-12-29 15:24:24,15.08824336,0.0002551,53.2173,123.7228,58.4606,301.6635,-0.00012941,-2.347e-05,0.0,0 STARLINK-3391,1 51117U 22005P   22363.64194474 -.00002347  00000-0 -12941-3 0  9997,2 51117  53.2173 123.7228 0002551  58.4606 301.6635 15.08824336 53951,6917.928000000001,95.439,541.558,538.029,0.0
